{"fetched_at":"2026-03-29T16:36:15Z","count":15609,"tles":[{"name":"BB4","line1":"1 57757U 23133B   26083.69601102  .00000111  00000+0  56948-4 0  9995","line2":"2 57757  80.9956  86.4464 0007027 214.6774 145.3938 14.09402908129449","category":"Other"}]}